#dP2024 12 18  0  0  0.00000000      96 __u+U IGS20 FIT  IAC
## 2345 259200.00000000   900.00000000 60662 0.0000000000000
+   52   G02G03G04G05G06G07G08G09G10G11G12G13G14G15G16G17G18
+        G19G20G21G22G23G24G25G26G27G28G29G30G31G32R01R02R03
+        R04R05R07R08R09R11R12R14R15R16R17R18R19R20R21R22R24
+        R26  0  0  0  0  0  0  0  0  0  0  0  0  0  0  0  0
+          0  0  0  0  0  0  0  0  0  0  0  0  0  0  0  0  0
++         6  5  6  7  6  6  7  6  6  5  6  6  6  6  7  5  7
++         6  6  6  5  5  6  6  6  6  6  7  6  6  5  7  7  8
++         8  8  9  6  6  6  7  6  6  6  6  7  7  7  6  6  6
++         6  0  0  0  0  0  0  0  0  0  0  0  0  0  0  0  0
++         0  0  0  0  0  0  0  0  0  0  0  0  0  0  0  0  0
%c M  cc GPS ccc cccc cccc cccc cccc ccccc ccccc ccccc ccccc
%c cc cc ccc ccc cccc cccc cccc cccc ccccc ccccc ccccc ccccc
%f  0.0000000  0.000000000  0.00000000000  0.000000000000000
%f  0.0000000  0.000000000  0.00000000000  0.000000000000000
%i    0    0    0    0      0      0      0      0         0
%i    0    0    0    0      0      0      0      0         0
/* INFORMATION & ANALYSIS CENTER (IAC)      ULTRA-RAPID DATA
/* S/V CLOCKS ARE ALIGNED TO GNSS TIME                      
/* G:C1WC2W R:C1PC2P E:C1XC5X C:C2IC6I J:C1CC2S             
/* PCV:IGS20_2317 OL/AL:FES2004  NONE     YN ORB:CoN CLK:CoN
*  2024 12 18  9 30  0.00000000
PG02 -14355.733227  21771.407528   4269.502500   -289.252566
PG03 -13210.649186  12401.489834 -19542.428734    627.181772
PG04  -4386.892165  19057.242341 -17885.385109    497.757171
PG05  24770.146708  -5626.948348   7700.503112   -196.362495
PG06  12155.860862   8014.301893 -22140.229916    -53.009481
PG07  -3494.512987  23052.681439  12824.332760    -15.233957
PG08 -12580.593202   8898.900641  21488.998154    441.185499
PG09   3910.334884  23493.819493 -11773.853733    492.005314
PG10 -19668.657775 -10536.353804  14894.084862   -239.245202
PG11  18615.783870  -4830.436281 -18250.363321   -752.692051
PG12  17137.703838 -10602.648933 -17566.600714   -559.080264
PG13  15675.128169    791.429025  21230.033179    690.386500
PG14  16165.485137  12999.622377  16764.700927    562.507973
PG15  10944.903327 -11058.303128  20998.422876    240.982469
PG16 -26564.686089   -969.529596   3095.975061   -100.322306
PG17  13058.036182  22685.441812  -3385.888117    514.097521
PG18   2429.903652 -21988.179576  14561.987524   -660.140994
PG19  16600.255068  16404.877476 -13214.871870    575.256814
PG20  26071.650143   -662.881896  -4540.658644    367.795872
PG21 -16657.140366  17360.751021  10284.216762     96.799045
PG22  21685.158775  10529.570995  11179.912786    -87.090565
PG23  -5625.754602 -14463.982434  21627.960954    385.900710
PG24  14543.615973 -21263.208145   5056.952842   -472.484234
PG25   2692.871847 -15527.619757 -21718.864707    497.959853
PG26 -25026.576604  -4844.097479  -8319.719168    -13.267215
PG27 -17494.499573  -3426.018913  19520.243422    -34.075983
PG28 -11602.901788 -10147.479441 -21645.590411   -511.437883
PG29  -1947.629323 -23837.086510 -11464.459395   -554.940269
PG30   6663.164924  16736.102150  19586.094522   -258.790890
PG31 -17368.071883    106.757817 -20434.980645   -219.742509
PG32 -16301.021570 -19917.840540  -6757.909705   -557.123209
PR01  10217.332743  17796.521590 -15155.432825    108.174845
PR02  19257.828446  16627.768851   1195.858518    -39.060362
PR03  18134.562212   5346.681172  17134.717832    113.480193
PR04   7039.361742  -8021.145724  23196.737151    268.947728
PR05  -7654.910526 -17480.635552  16952.445950    142.355801
PR07 -18033.739024  -5211.839829 -17260.933112     97.153151
PR08  -6843.285011   8302.465354 -23067.759754     -6.121484
PR09 -15384.131755  -4687.420582 -19755.501095    226.917182
PR11 -20494.451222  11887.181014   9435.139329      4.215641
PR12  -3027.577157  12287.437169  22167.005054     48.554049
PR14  24160.158344  -5274.131414   6300.827087     27.445749
PR15  19464.273361 -12261.386756 -11015.267311     73.076668
PR16   3243.504550 -12197.856195 -22169.030592     31.713030
PR17  11483.807968  -5220.970966 -22147.392501    149.560424
PR18  10072.956590 -20091.440023 -12087.684162    177.414087
PR19   5286.653598 -24848.786245   2275.297217   -302.326747
PR20  -5555.181982 -14653.287571  20156.017376   -123.386041
PR21 -11350.692608   3958.252996  22509.211564   -160.537451
PR22 -10391.152585  20556.193496  10981.515910    -45.637728
PR24   6878.244466  13994.611055 -20167.903201    -84.537833
PR26  -8317.176034   6992.859148 -23057.081645   -132.646493
*  2024 12 18  9 45  0.00000000
PG02 -14331.673344  21119.516697   7060.062309   -289.244556
PG03 -15324.201421  12293.927542 -17982.809442    627.189530
PG04  -5508.811046  17231.903856 -19377.144876    497.762642
PG05  25521.060696  -5458.273538   4944.106223   -196.363238
PG06  10840.295579  10176.009625 -21924.691413    -53.035067
PG07  -4354.590514  24026.935961  10409.707617    -15.232864
PG08 -13921.631843   6802.961117  21468.389188    441.193582
PG09   2964.515217  22351.687702 -14073.273114    492.019722
PG10 -17903.454165 -10632.134430  16915.641374   -239.258991
PG11  17547.026071  -2929.168004 -19661.156882   -752.692197
PG12  18979.439552 -10317.519678 -15710.672943   -559.082402
PG13  16523.579070   3060.901405  20394.212657    690.383838
PG14  14163.110716  13120.513916  18385.648959    562.514828
PG15  12548.968954  -9108.316584  21049.426181    240.986558
PG16 -26773.731841  -1210.638399    275.456037   -100.313690
PG17  12949.044736  23041.893878   -518.778997    514.083387
PG18   3379.955772 -23209.785631  12273.779306   -660.140475
PG19  16993.145165  17699.297881 -10841.345691    575.260650
PG20  25441.838452   -274.162197  -7287.199290    367.795715
PG21 -16372.400679  16058.307001  12757.955493     96.801714
PG22  20300.094779  10630.891070  13546.125943    -87.092690
PG23  -3145.250962 -14551.327899  22048.793711    385.907662
PG24  14540.662100 -20389.812112   7748.337867   -472.481385
PG25   5084.424630 -15524.536174 -21257.190615    497.959469
PG26 -23989.736954  -5211.282994 -10797.550142    -13.280048
PG27 -18519.885688  -5376.045628  18145.255742    -34.075618
PG28 -10409.906459 -12281.772347 -21139.879221   -511.447375
PG29  -1142.751772 -22623.653526 -13812.087645   -554.937231
PG30   5452.739120  18525.332266  18272.531410   -258.783559
PG31 -16214.016606  -1918.127610 -21254.199598   -219.742119
PG32 -16430.982434 -20581.813115  -3996.488566   -557.117603
PR01   8696.285317  16477.313716 -17425.389880    108.176223
PR02  19324.666428  16459.410070  -2034.412275    -39.059973
PR03  19726.024301   6506.281864  14805.904009    113.480860
PR04   9219.549345  -6193.491205  22989.772892    268.948905
PR05  -6043.221641 -15954.914490  18984.898272    142.357400
PR07 -19647.784758  -6389.793900 -14959.768995     97.153888
PR08  -9046.069257   6490.873911 -22893.273956     -6.121070
PR09 -13034.716912  -5622.278427 -21157.696415    226.918878
PR11 -21358.464067  12364.849687   6420.390482      4.214535
PR12  -5502.651129  13274.809664  21095.945140     48.554329
PR14  23224.535937  -5027.259826   9304.977483     27.446622
PR15  20527.621265 -12788.591758  -8104.820057     73.076343
PR16   5716.245993 -13201.733182 -21069.974844     31.713779
PR17  10966.866957  -2484.299523 -22876.351351    149.562835
PR18   9604.185402 -18491.846941 -14724.949758    177.415859
PR19   5093.121005 -24973.262857   -967.525758   -302.328240
PR20  -5160.116855 -16997.678195  18340.221391   -123.386405
PR21 -10806.875304   1197.117410  23083.617620   -160.540965
PR22  -9959.734480  19096.022111  13691.739305    -45.649193
PR24   6554.864863  16360.007285 -18423.635145    -84.539156
PR26 -10517.827408   5221.423824 -22622.407166   -132.646281
EOF
